GLOBALSTAR M024 [-]     
1 25883U 99043A   23250.65427955 -.00000094  00000+0 -10277-2 0  9999
2 25883  52.0032  43.9131 0002094 104.3713  26.8166 11.10151402 42837
GLOBALSTAR M027 [-]     
1 25884U 99043B   23250.79172025 -.00000100  00000+0 -13683-2 0  9992
2 25884  52.0195 103.2258 0021881  25.5068 334.6800 11.04365927 69601
GLOBALSTAR M053 [-]     
1 25886U 99043D   23250.28800905 -.00000050  00000+0  54505-3 0  9995
2 25886  51.9948 251.6367 0003389  59.5032 314.0738 11.27650525 46240
GLOBALSTAR M058 [-]     
1 25907U 99049A   23250.58153457 -.00000064  00000+0  27685-3 0  9995
2 25907  51.9959  41.0667 0002993  96.8544 263.2632 11.93165870464117
GLOBALSTAR M050 [-]     
1 25908U 99049B   23251.05552233 -.00000090  00000+0 -21686-4 0  9990
2 25908  51.9978  95.8991 0008757 175.2232 352.9003 12.07421498 74624
GLOBALSTAR M033 [-]     
1 25909U 99049C   23250.37334660 -.00000025  00000+0  63984-3 0  9990
2 25909  51.9942  14.4171 0011812  26.5661 333.5789 12.20261454456532
